{"type": "FeatureCollection", "features": [ {"type": "Feature", "properties": {"norad_id": 66530, "name": "STARLINK-35961", "group": "last-30-days", "lat": 2.6885692284092637, "lon": -83.09650051658684, "alt_km": 353.61418056244656, "timestamp": "2025-12-04T23:34:04.491128+00:00", "meta": {"OBJECT_NAME": "STARLINK-35961", "OBJECT_ID": "2025-265Q", "EPOCH": "2025-12-04T18:00:02.000160", "MEAN_MOTION": 15.72741717, "ECCENTRICITY": 0.000142, "INCLINATION": 42.9999, "RA_OF_ASC_NODE": 101.194, "ARG_OF_PERICENTER": 281.4918, "MEAN_ANOMALY": 19.884, "EPHEMERIS_TYPE": 0, "CLASSIFICATION_TYPE": "U", "NORAD_CAT_ID": 66530, "ELEMENT_SET_NO": 999, "REV_AT_EPOCH": 371, "BSTAR": -0.015, "MEAN_MOTION_DOT": -0.01823566, "MEAN_MOTION_DDOT": 0}, "tle": {"line1": "1 66530U 25265Q   25338.75002315 -.01823566  00000+0 -15000-1 0  9993", "line2": "2 66530  42.9999 101.1940 0001420 281.4918  19.8840 15.72741717  3713"}}, "geometry": {"type": "Point", "coordinates": [-83.09650051658684, 2.6885692284092637]}}, {"type": "Feature", "properties": {"norad_id": 66531, "name": "STARLINK-35960", "group": "last-30-days", "lat": 1.384671975394487, "lon": -81.69953440552098, "alt_km": 353.69536510085436, "timestamp": "2025-12-04T23:34:04.491139+00:00", "meta": {"OBJECT_NAME": "STARLINK-35960", "OBJECT_ID": "2025-265R", "EPOCH": "2025-12-04T18:00:02.000160", "MEAN_MOTION": 15.727441, "ECCENTRICITY": 0.0001581, "INCLINATION": 42.9999, "RA_OF_ASC_NODE": 101.1888, "ARG_OF_PERICENTER": 277.6115, "MEAN_ANOMALY": 25.6788, "EPHEMERIS_TYPE": 0, "CLASSIFICATION_TYPE": "U", "NORAD_CAT_ID": 66531, "ELEMENT_SET_NO": 999, "REV_AT_EPOCH": 371, "BSTAR": -0.015015, "MEAN_MOTION_DOT": -0.01825462, "MEAN_MOTION_DDOT": 0}, "tle": {"line1": "1 66531U 25265R   25338.75002315 -.01825462  00000+0 -15015-1 0  9997", "line2": "2 66531  42.9999 101.1888 0001581 277.6115  25.6788 15.72744100  3714"}}, "geometry": {"type": "Point", "coordinates": [-81.69953440552098, 1.384671975394487]}}, {"type": "Feature", "properties": {"norad_id": 66532, "name": "STARLINK-35914", "group": "last-30-days", "lat": 0.07433371458085661, "lon": -80.2976861121555, "alt_km": 353.7565182205062, "timestamp": "2025-12-04T23:34:04.491149+00:00", "meta": {"OBJECT_NAME": "STARLINK-35914", "OBJECT_ID": "2025-265S", "EPOCH": "2025-12-04T18:00:02.000160", "MEAN_MOTION": 15.72745066, "ECCENTRICITY": 0.0001373, "INCLINATION": 42.9998, "RA_OF_ASC_NODE": 101.184, "ARG_OF_PERICENTER": 275.0973, "MEAN_ANOMALY": 30.1127, "EPHEMERIS_TYPE": 0, "CLASSIFICATION_TYPE": "U", "NORAD_CAT_ID": 66532, "ELEMENT_SET_NO": 999, "REV_AT_EPOCH": 371, "BSTAR": -0.015039, "MEAN_MOTION_DOT": -0.01827856, "MEAN_MOTION_DDOT": 0}, "tle": {"line1": "1 66532U 25265S   25338.75002315 -.01827856  00000+0 -15039-1 0  9993", "line2": "2 66532  42.9998 101.1840 0001373 275.0973  30.1127 15.72745066  3715"}}, "geometry": {"type": "Point", "coordinates": [-80.2976861121555, 0.07433371458085661]}}, {"type": "Feature", "properties": {"norad_id": 66533, "name": "STARLINK-35707", "group": "last-30-days", "lat": -1.2309667868625704, "lon": -78.90107373512859, "alt_km": 354.0268402350948, "timestamp": "2025-12-04T23:34:04.491159+00:00", "meta": {"OBJECT_NAME": "STARLINK-35707", "OBJECT_ID": "2025-265T", "EPOCH": "2025-12-04T18:00:02.000160", "MEAN_MOTION": 15.72744305, "ECCENTRICITY": 0.0001411, "INCLINATION": 42.9999, "RA_OF_ASC_NODE": 101.1795, "ARG_OF_PERICENTER": 281.798, "MEAN_ANOMALY": 25.327, "EPHEMERIS_TYPE": 0, "CLASSIFICATION_TYPE": "U", "NORAD_CAT_ID": 66533, "ELEMENT_SET_NO": 999, "REV_AT_EPOCH": 371, "BSTAR": -0.015022, "MEAN_MOTION_DOT": -0.01826018, "MEAN_MOTION_DDOT": 0}, "tle": {"line1": "1 66533U 25265T   25338.75002315 -.01826018  00000+0 -15022-1 0  9995", "line2": "2 66533  42.9999 101.1795 0001411 281.7980  25.3270 15.72744305  3711"}}, "geometry": {"type": "Point", "coordinates": [-78.90107373512859, -1.2309667868625704]}}, {"type": "Feature", "properties": {"norad_id": 66534, "name": "STARLINK-35976", "group": "last-30-days", "lat": -2.5351587282369947, "lon": -77.50341451094361, "alt_km": 354.2088640772072, "timestamp": "2025-12-04T23:34:04.491169+00:00", "meta": {"OBJECT_NAME": "STARLINK-35976", "OBJECT_ID": "2025-265U", "EPOCH": "2025-12-04T18:00:02.000160", "MEAN_MOTION": 15.72744018, "ECCENTRICITY": 0.0001602, "INCLINATION": 43.0002, "RA_OF_ASC_NODE": 101.1751, "ARG_OF_PERICENTER": 283.1593, "MEAN_ANOMALY": 25.8821, "EPHEMERIS_TYPE": 0, "CLASSIFICATION_TYPE": "U", "NORAD_CAT_ID": 66534, "ELEMENT_SET_NO": 999, "REV_AT_EPOCH": 371, "BSTAR": -0.015011, "MEAN_MOTION_DOT": -0.01824974, "MEAN_MOTION_DDOT": 0}, "tle": {"line1": "1 66534U 25265U   25338.75002315 -.01824974  00000+0 -15011-1 0  9993", "line2": "2 66534  43.0002 101.1751 0001602 283.1593  25.8821 15.72744018  3717"}}, "geometry": {"type": "Point", "coordinates": [-77.50341451094361, -2.5351587282369947]}}, {"type": "Feature", "properties": {"norad_id": 66535, "name": "STARLINK-35514", "group": "last-30-days", "lat": -3.8401151833578413, "lon": -76.10125319846078, "alt_km": 354.33241620417084, "timestamp": "2025-12-04T23:34:04.491181+00:00", "meta": {"OBJECT_NAME": "STARLINK-35514", "OBJECT_ID": "2025-265V", "EPOCH": "2025-12-04T18:00:02.000160", "MEAN_MOTION": 15.72744341, "ECCENTRICITY": 0.0001556, "INCLINATION": 43.0002, "RA_OF_ASC_NODE": 101.1699, "ARG_OF_PERICENTER": 283.5097, "MEAN_ANOMALY": 27.4487, "EPHEMERIS_TYPE": 0, "CLASSIFICATION_TYPE": "U", "NORAD_CAT_ID": 66535, "ELEMENT_SET_NO": 999, "REV_AT_EPOCH": 371, "BSTAR": -0.015012, "MEAN_MOTION_DOT": -0.01825116, "MEAN_MOTION_DDOT": 0}, "tle": {"line1": "1 66535U 25265V   25338.75002315 -.01825116  00000+0 -15012-1 0  9994", "line2": "2 66535  43.0002 101.1699 0001556 283.5097  27.4487 15.72744341  3715"}}, "geometry": {"type": "Point", "coordinates": [-76.10125319846078, -3.8401151833578413]}}, {"type": "Feature", "properties": {"norad_id": 66536, "name": "STARLINK-35640", "group": "last-30-days", "lat": -5.1446256526961545, "lon": -74.69194935931876, "alt_km": 354.41651940797874, "timestamp": "2025-12-04T23:34:04.491191+00:00", "meta": {"OBJECT_NAME": "STARLINK-35640", "OBJECT_ID": "2025-265W", "EPOCH": "2025-12-04T18:00:02.000160", "MEAN_MOTION": 15.72743385, "ECCENTRICITY": 0.0001277, "INCLINATION": 43.0002, "RA_OF_ASC_NODE": 101.1655, "ARG_OF_PERICENTER": 282.9067, "MEAN_ANOMALY": 29.97, "EPHEMERIS_TYPE": 0, "CLASSIFICATION_TYPE": "U", "NORAD_CAT_ID": 66536, "ELEMENT_SET_NO": 999, "REV_AT_EPOCH": 369, "BSTAR": -0.015016, "MEAN_MOTION_DOT": -0.01825224, "MEAN_MOTION_DDOT": 0}, "tle": {"line1": "1 66536U 25265W   25338.75002315 -.01825224  00000+0 -15016-1 0  9999", "line2": "2 66536  43.0002 101.1655 0001277 282.9067  29.9700 15.72743385  3697"}}, "geometry": {"type": "Point", "coordinates": [-74.69194935931876, -5.1446256526961545]}}, {"type": "Feature", "properties": {"norad_id": 66537, "name": "STARLINK-35582", "group": "last-30-days", "lat": -6.440831312815292, "lon": -73.28317376678379, "alt_km": 354.5001113475719, "timestamp": "2025-12-04T23:34:04.491203+00:00", "meta": {"OBJECT_NAME": "STARLINK-35582", "OBJECT_ID": "2025-265X", "EPOCH": "2025-12-04T18:00:02.000160", "MEAN_MOTION": 15.72752991, "ECCENTRICITY": 0.0001519, "INCLINATION": 43.0004, "RA_OF_ASC_NODE": 101.1605, "ARG_OF_PERICENTER": 280.9947, "MEAN_ANOMALY": 33.792, "EPHEMERIS_TYPE": 0, "CLASSIFICATION_TYPE": "U", "NORAD_CAT_ID": 66537, "ELEMENT_SET_NO": 999, "REV_AT_EPOCH": 371, "BSTAR": -0.015091, "MEAN_MOTION_DOT": -0.01834073, "MEAN_MOTION_DDOT": 0}, "tle": {"line1": "1 66537U 25265X   25338.75002315 -.01834073  00000+0 -15091-1 0  9995", "line2": "2 66537  43.0004 101.1605 0001519 280.9947  33.7920 15.72752991  3712"}}, "geometry": {"type": "Point", "coordinates": [-73.28317376678379, -6.440831312815292]}}, {"type": "Feature", "properties": {"norad_id": 66538, "name": "STARLINK-35577", "group": "last-30-days", "lat": -7.736763136728655, "lon": -71.86319241476315, "alt_km": 354.6422674731375, "timestamp": "2025-12-04T23:34:04.491213+00:00", "meta": {"OBJECT_NAME": "STARLINK-35577", "OBJECT_ID": "2025-265Y", "EPOCH": "2025-12-04T18:00:02.000160", "MEAN_MOTION": 15.72744715, "ECCENTRICITY": 0.0001498, "INCLINATION": 43.0004, "RA_OF_ASC_NODE": 101.1554, "ARG_OF_PERICENTER": 282.0304, "MEAN_ANOMALY": 34.6794, "EPHEMERIS_TYPE": 0, "CLASSIFICATION_TYPE": "U", "NORAD_CAT_ID": 66538, "ELEMENT_SET_NO": 999, "REV_AT_EPOCH": 371, "BSTAR": -0.015018, "MEAN_MOTION_DOT": -0.01825678, "MEAN_MOTION_DDOT": 0}, "tle": {"line1": "1 66538U 25265Y   25338.75002315 -.01825678  00000+0 -15018-1 0  9996", "line2": "2 66538  43.0004 101.1554 0001498 282.0304  34.6794 15.72744715  3716"}}, "geometry": {"type": "Point", "coordinates": [-71.86319241476315, -7.736763136728655]}}, {"type": "Feature", "properties": {"norad_id": 66539, "name": "STARLINK-35697", "group": "last-30-days", "lat": -9.029521221243458, "lon": -70.43278595103783, "alt_km": 354.6673356213396, "timestamp": "2025-12-04T23:34:04.491223+00:00", "meta": {"OBJECT_NAME": "STARLINK-35697", "OBJECT_ID": "2025-265Z", "EPOCH": "2025-12-04T18:00:02.000160", "MEAN_MOTION": 15.72745683, "ECCENTRICITY": 0.0001281, "INCLINATION": 43.0004, "RA_OF_ASC_NODE": 101.1502, "ARG_OF_PERICENTER": 277.6107, "MEAN_ANOMALY": 41.0173, "EPHEMERIS_TYPE": 0, "CLASSIFICATION_TYPE": "U", "NORAD_CAT_ID": 66539, "ELEMENT_SET_NO": 999, "REV_AT_EPOCH": 371, "BSTAR": -0.015042, "MEAN_MOTION_DOT": -0.01828146, "MEAN_MOTION_DDOT": 0}, "tle": {"line1": "1 66539U 25265Z   25338.75002315 -.01828146  00000+0 -15042-1 0  9997", "line2": "2 66539  43.0004 101.1502 0001281 277.6107  41.0173 15.72745683  3719"}}, "geometry": {"type": "Point", "coordinates": [-70.43278595103783, -9.029521221243458]}}]}